{"fetched_at":"2026-07-14T06:34:27.310Z","source":"https://celestrak.org/NORAD/elements/gp.php?GROUP=spire&FORMAT=JSON","constellation":"spire","records":[{"OBJECT_NAME":"LEMUR-1","OBJECT_ID":"2014-033AL","EPOCH":"2026-07-13T08:46:00.556608","CLASSIFICATION_TYPE":"U","MEAN_MOTION":14.85333807,"ECCENTRICITY":0.00479283,"INCLINATION":97.7905,"RA_OF_ASC_NODE":343.5942,"ARG_OF_PERICENTER":353.9806,"MEAN_ANOMALY":6.0828,"EPHEMERIS_TYPE":0,"NORAD_CAT_ID":40044,"ELEMENT_SET_NO":999,"REV_AT_EPOCH":64935,"BSTAR":0.00010005631,"MEAN_MOTION_DOT":0.00000822,"MEAN_MOTION_DDOT":0},{"OBJECT_NAME":"LEMUR-2-GREENBERG","OBJECT_ID":"2017-042N","EPOCH":"2026-07-13T11:30:25.424352","CLASSIFICATION_TYPE":"U","MEAN_MOTION":15.32118737,"ECCENTRICITY":0.00071612,"INCLINATION":97.3826,"RA_OF_ASC_NODE":14.9999,"ARG_OF_PERICENTER":266.6725,"MEAN_ANOMALY":93.3697,"EPHEMERIS_TYPE":0,"NORAD_CAT_ID":42837,"ELEMENT_SET_NO":999,"REV_AT_EPOCH":49241,"BSTAR":0.00030775394,"MEAN_MOTION_DOT":0.00009474,"MEAN_MOTION_DDOT":0},{"OBJECT_NAME":"LEMUR-2-ANDIS","OBJECT_ID":"2017-042P","EPOCH":"2026-07-13T07:35:17.347200","CLASSIFICATION_TYPE":"U","MEAN_MOTION":15.35874603,"ECCENTRICITY":0.0007134,"INCLINATION":97.3675,"RA_OF_ASC_NODE":15.1146,"ARG_OF_PERICENTER":265.7451,"MEAN_ANOMALY":94.2978,"EPHEMERIS_TYPE":0,"NORAD_CAT_ID":42838,"ELEMENT_SET_NO":999,"REV_AT_EPOCH":49246,"BSTAR":0.00039625513,"MEAN_MOTION_DOT":0.00013773,"MEAN_MOTION_DDOT":0},{"OBJECT_NAME":"LEMUR-2-MONSON","OBJECT_ID":"2017-042Q","EPOCH":"2026-07-13T19:22:56.061984","CLASSIFICATION_TYPE":"U","MEAN_MOTION":15.28729745,"ECCENTRICITY":0.0005239,"INCLINATION":97.4086,"RA_OF_ASC_NODE":15.2572,"ARG_OF_PERICENTER":251.8262,"MEAN_ANOMALY":108.2408,"EPHEMERIS_TYPE":0,"NORAD_CAT_ID":42839,"ELEMENT_SET_NO":999,"REV_AT_EPOCH":49223,"BSTAR":0.00028219,"MEAN_MOTION_DOT":0.0000781,"MEAN_MOTION_DDOT":0},{"OBJECT_NAME":"LEMUR-2-FURIAUS","OBJECT_ID":"2017-042R","EPOCH":"2026-07-12T10:41:36.677760","CLASSIFICATION_TYPE":"U","MEAN_MOTION":15.31072029,"ECCENTRICITY":0.00062398,"INCLINATION":97.3775,"RA_OF_ASC_NODE":11.8672,"ARG_OF_PERICENTER":340.6601,"MEAN_ANOMALY":19.4403,"EPHEMERIS_TYPE":0,"NORAD_CAT_ID":42840,"ELEMENT_SET_NO":999,"REV_AT_EPOCH":49207,"BSTAR":0.00035675373,"MEAN_MOTION_DOT":0.00010642,"MEAN_MOTION_DDOT":0},{"OBJECT_NAME":"LEMUR-2-PETERG","OBJECT_ID":"2017-042S","EPOCH":"2026-07-13T20:05:57.323328","CLASSIFICATION_TYPE":"U","MEAN_MOTION":15.34997111,"ECCENTRICITY":0.0003215,"INCLINATION":97.3987,"RA_OF_ASC_NODE":19.9327,"ARG_OF_PERICENTER":225.7351,"MEAN_ANOMALY":134.3628,"EPHEMERIS_TYPE":0,"NORAD_CAT_ID":42841,"ELEMENT_SET_NO":999,"REV_AT_EPOCH":49252,"BSTAR":0.00034038,"MEAN_MOTION_DOT":0.00011482,"MEAN_MOTION_DDOT":0},{"OBJECT_NAME":"LEMUR-2-DEMBITZ","OBJECT_ID":"2017-042T","EPOCH":"2026-07-13T10:41:40.894944","CLASSIFICATION_TYPE":"U","MEAN_MOTION":15.3107573,"ECCENTRICITY":0.00050251,"INCLINATION":97.3823,"RA_OF_ASC_NODE":15.9038,"ARG_OF_PERICENTER":282.7379,"MEAN_ANOMALY":77.3301,"EPHEMERIS_TYPE":0,"NORAD_CAT_ID":42842,"ELEMENT_SET_NO":999,"REV_AT_EPOCH":49236,"BSTAR":0.00034897446,"MEAN_MOTION_DOT":0.00010407,"MEAN_MOTION_DDOT":0},{"OBJECT_NAME":"LEMUR-2-ZACHARY","OBJECT_ID":"2017-042W","EPOCH":"2026-07-13T12:07:53.043456","CLASSIFICATION_TYPE":"U","MEAN_MOTION":15.5260632,"ECCENTRICITY":0.00024753,"INCLINATION":97.357,"RA_OF_ASC_NODE":26.7449,"ARG_OF_PERICENTER":255.1233,"MEAN_ANOMALY":104.9746,"EPHEMERIS_TYPE":0,"NORAD_CAT_ID":42845,"ELEMENT_SET_NO":999,"REV_AT_EPOCH":49328,"BSTAR":0.00051240898,"MEAN_MOTION_DOT":0.00031484,"MEAN_MOTION_DDOT":0},{"OBJECT_NAME":"LEMUR-2-AMANDA-SVANTE","OBJECT_ID":"2021-034B","EPOCH":"2026-07-13T18:09:57.208032","CLASSIFICATION_TYPE":"U","MEAN_MOTION":15.35901583,"ECCENTRICITY":0.0004577,"INCLINATION":97.5758,"RA_OF_ASC_NODE":273.7724,"ARG_OF_PERICENTER":146.6143,"MEAN_ANOMALY":213.539,"EPHEMERIS_TYPE":0,"NORAD_CAT_ID":48269,"ELEMENT_SET_NO":999,"REV_AT_EPOCH":28513,"BSTAR":0.00055866,"MEAN_MOTION_DOT":0.0001947,"MEAN_MOTION_DDOT":0},{"OBJECT_NAME":"LEMUR-2-SPECIAL-K","OBJECT_ID":"2021-034F","EPOCH":"2026-07-13T19:23:48.820416","CLASSIFICATION_TYPE":"U","MEAN_MOTION":15.74229239,"ECCENTRICITY":0.0006213,"INCLINATION":97.5644,"RA_OF_ASC_NODE":283.7792,"ARG_OF_PERICENTER":216.1117,"MEAN_ANOMALY":143.9728,"EPHEMERIS_TYPE":0,"NORAD_CAT_ID":48273,"ELEMENT_SET_NO":999,"REV_AT_EPOCH":28586,"BSTAR":0.0011652,"MEAN_MOTION_DOT":0.0017016,"MEAN_MOTION_DDOT":0},{"OBJECT_NAME":"LEMUR-2-EMBRIONOVIS","OBJECT_ID":"2023-084AQ","EPOCH":"2026-07-13T08:36:15.398784","CLASSIFICATION_TYPE":"U","MEAN_MOTION":15.38198824,"ECCENTRICITY":0.00081393,"INCLINATION":97.6315,"RA_OF_ASC_NODE":339.5788,"ARG_OF_PERICENTER":213.3126,"MEAN_ANOMALY":146.7608,"EPHEMERIS_TYPE":0,"NORAD_CAT_ID":56970,"ELEMENT_SET_NO":999,"REV_AT_EPOCH":17170,"BSTAR":0.00023577819,"MEAN_MOTION_DOT":0.00008792,"MEAN_MOTION_DDOT":0},{"OBJECT_NAME":"LEMUR-2-DEVERILL-M-T","OBJECT_ID":"2023-100F","EPOCH":"2026-07-13T16:08:26.294784","CLASSIFICATION_TYPE":"U","MEAN_MOTION":15.41043213,"ECCENTRICITY":0.0004681,"INCLINATION":99.4451,"RA_OF_ASC_NODE":241.1062,"ARG_OF_PERICENTER":303.6745,"MEAN_ANOMALY":56.4048,"EPHEMERIS_TYPE":0,"NORAD_CAT_ID":57391,"ELEMENT_SET_NO":999,"REV_AT_EPOCH":16532,"BSTAR":0.00039466,"MEAN_MOTION_DOT":0.00016198,"MEAN_MOTION_DDOT":0},{"OBJECT_NAME":"LEMUR-2-BASS","OBJECT_ID":"2023-174D","EPOCH":"2026-07-13T18:57:30.839328","CLASSIFICATION_TYPE":"U","MEAN_MOTION":15.43963525,"ECCENTRICITY":0.0007761,"INCLINATION":97.3852,"RA_OF_ASC_NODE":279.8888,"ARG_OF_PERICENTER":82.6204,"MEAN_ANOMALY":277.5926,"EPHEMERIS_TYPE":0,"NORAD_CAT_ID":58259,"ELEMENT_SET_NO":999,"REV_AT_EPOCH":14946,"BSTAR":0.00023445,"MEAN_MOTION_DOT":0.00010596,"MEAN_MOTION_DDOT":0},{"OBJECT_NAME":"LEMUR-2-JK0903EM1407","OBJECT_ID":"2023-174CJ","EPOCH":"2026-07-13T18:22:50.556288","CLASSIFICATION_TYPE":"U","MEAN_MOTION":15.53017919,"ECCENTRICITY":0.0003751,"INCLINATION":97.3927,"RA_OF_ASC_NODE":286.0103,"ARG_OF_PERICENTER":38.661,"MEAN_ANOMALY":321.491,"EPHEMERIS_TYPE":0,"NORAD_CAT_ID":58336,"ELEMENT_SET_NO":999,"REV_AT_EPOCH":14985,"BSTAR":0.00026895,"MEAN_MOTION_DOT":0.00016696,"MEAN_MOTION_DDOT":0},{"OBJECT_NAME":"LEMUR-2-MJR092620","OBJECT_ID":"2023-174CN","EPOCH":"2026-07-13T20:04:38.561952","CLASSIFICATION_TYPE":"U","MEAN_MOTION":15.45830894,"ECCENTRICITY":0.0005431,"INCLINATION":97.3983,"RA_OF_ASC_NODE":285.3735,"ARG_OF_PERICENTER":34.6168,"MEAN_ANOMALY":325.5433,"EPHEMERIS_TYPE":0,"NORAD_CAT_ID":58340,"ELEMENT_SET_NO":999,"REV_AT_EPOCH":14976,"BSTAR":0.00024131,"MEAN_MOTION_DOT":0.0001162,"MEAN_MOTION_DDOT":0},{"OBJECT_NAME":"LEMUR-2-NIMBUS2000","OBJECT_ID":"2024-022A","EPOCH":"2026-07-13T12:22:08.300640","CLASSIFICATION_TYPE":"U","MEAN_MOTION":15.41070086,"ECCENTRICITY":0.0008918,"INCLINATION":97.4084,"RA_OF_ASC_NODE":44.8635,"ARG_OF_PERICENTER":34.2151,"MEAN_ANOMALY":325.9668,"EPHEMERIS_TYPE":0,"NORAD_CAT_ID":58899,"ELEMENT_SET_NO":999,"REV_AT_EPOCH":13632,"BSTAR":0.00033633384,"MEAN_MOTION_DOT":0.00013841,"MEAN_MOTION_DDOT":0}]}
